IRIDIUM 116             
1 43072U 17083C   24122.41230380  .00000063  00000+0  15447-4 0  9990
2 43072  86.3918 286.6281 0002007  94.6709 265.4716 14.34218256332836
IRIDIUM 130             
1 43073U 17083D   24122.17127978  .00000196  00000+0  63084-4 0  9999
2 43073  86.3926 286.9291 0002155  88.0602 272.0840 14.34220472332748
IRIDIUM 151             
1 43074U 17083E   24122.42498711  .00000204  00000+0  65772-4 0  9990
2 43074  86.3919 286.6629 0002437  99.6684 260.4787 14.34219747332805
IRIDIUM 134             
1 43075U 17083F   24122.39327244  .00000231  00000+0  75258-4 0  9999
2 43075  86.3922 286.6739 0002028  87.6086 272.5342 14.34220253332761
IRIDIUM 137             
1 43076U 17083G   24122.19665515  .00000197  00000+0  63165-4 0  9999
2 43076  86.3922 286.8333 0002076 104.0944 256.0482 14.34217618332802
IRIDIUM 141             
1 43077U 17083H   24122.39961952  .00000007  00000+0 -44526-5 0  9998
2 43077  86.3914 286.6231 0002139  92.6831 267.4610 14.34217712332833
IRIDIUM 153             
1 43078U 17083J   24122.07272965  .00000557  00000+0  19176-3 0  9993
2 43078  86.3960 255.1968 0002591  91.4334 268.7159 14.34215371333898
IRIDIUM 131             
1 43079U 17083K   24122.59623948  .00000129  00000+0  38876-4 0  9996
2 43079  86.3923 286.6750 0002127  97.1476 262.9961 14.34218407332799
